{"type": "FeatureCollection", "features": [ {"type": "Feature", "properties": {"norad_id": 66639, "name": "STARLINK-35908", "group": "last-30-days", "lat": 16.279811951331755, "lon": -156.4086231416657, "alt_km": 405.63140567482606, "timestamp": "2025-12-11T22:43:46.024621+00:00", "meta": {"OBJECT_NAME": "STARLINK-35908", "OBJECT_ID": "2025-271Y", "EPOCH": "2025-12-11T14:00:01.999872", "MEAN_MOTION": 15.54898176, "ECCENTRICITY": 0.00011745, "INCLINATION": 53.1598, "RA_OF_ASC_NODE": 192.6961, "ARG_OF_PERICENTER": 103.3822, "MEAN_ANOMALY": 41.2427, "EPHEMERIS_TYPE": 0, "CLASSIFICATION_TYPE": "U", "NORAD_CAT_ID": 66639, "ELEMENT_SET_NO": 999, "REV_AT_EPOCH": 405, "BSTAR": -0.033269325, "MEAN_MOTION_DOT": -0.02021804, "MEAN_MOTION_DDOT": 0}, "tle": {"line1": "1 66639U 25271Y   25345.58335648 -.02021804  00000+0 -33269-1 0  9990", "line2": "2 66639  53.1598 192.6961 0001174 103.3822  41.2427 15.54898176  4052"}}, "geometry": {"type": "Point", "coordinates": [-156.4086231416657, 16.279811951331755]}}, {"type": "Feature", "properties": {"norad_id": 66640, "name": "STARLINK-35921", "group": "last-30-days", "lat": 17.773975133937093, "lon": -155.15323212689617, "alt_km": 405.30663359739356, "timestamp": "2025-12-11T22:43:46.024631+00:00", "meta": {"OBJECT_NAME": "STARLINK-35921", "OBJECT_ID": "2025-271Z", "EPOCH": "2025-12-11T14:00:01.999872", "MEAN_MOTION": 15.54900516, "ECCENTRICITY": 0.00012082, "INCLINATION": 53.1599, "RA_OF_ASC_NODE": 192.6925, "ARG_OF_PERICENTER": 98.0049, "MEAN_ANOMALY": 48.5358, "EPHEMERIS_TYPE": 0, "CLASSIFICATION_TYPE": "U", "NORAD_CAT_ID": 66640, "ELEMENT_SET_NO": 999, "REV_AT_EPOCH": 405, "BSTAR": -0.033314527, "MEAN_MOTION_DOT": -0.02024437, "MEAN_MOTION_DDOT": 0}, "tle": {"line1": "1 66640U 25271Z   25345.58335648 -.02024437  00000+0 -33315-1 0  9999", "line2": "2 66640  53.1599 192.6925 0001208  98.0049  48.5358 15.54900516  4059"}}, "geometry": {"type": "Point", "coordinates": [-155.15323212689617, 17.773975133937093]}}, {"type": "Feature", "properties": {"norad_id": 66641, "name": "STARLINK-35923", "group": "last-30-days", "lat": 23.657825622695558, "lon": -149.90167010750457, "alt_km": 404.3835513307704, "timestamp": "2025-12-11T22:43:46.024640+00:00", "meta": {"OBJECT_NAME": "STARLINK-35923", "OBJECT_ID": "2025-271AA", "EPOCH": "2025-12-11T14:00:01.999872", "MEAN_MOTION": 15.54896125, "ECCENTRICITY": 0.00011679, "INCLINATION": 53.1597, "RA_OF_ASC_NODE": 192.6756, "ARG_OF_PERICENTER": 108.2858, "MEAN_ANOMALY": 45.9225, "EPHEMERIS_TYPE": 0, "CLASSIFICATION_TYPE": "U", "NORAD_CAT_ID": 66641, "ELEMENT_SET_NO": 999, "REV_AT_EPOCH": 405, "BSTAR": -0.033199282, "MEAN_MOTION_DOT": -0.02017856, "MEAN_MOTION_DDOT": 0}, "tle": {"line1": "1 66641U 25271AA  25345.58335648 -.02017856  00000+0 -33199-1 0  9997", "line2": "2 66641  53.1597 192.6756 0001167 108.2858  45.9225 15.54896125  4050"}}, "geometry": {"type": "Point", "coordinates": [-149.90167010750457, 23.657825622695558]}}, {"type": "Feature", "properties": {"norad_id": 66642, "name": "STARLINK-35926", "group": "last-30-days", "lat": 22.204158298811667, "lon": -151.25205175943404, "alt_km": 404.52176705914917, "timestamp": "2025-12-11T22:43:46.024654+00:00", "meta": {"OBJECT_NAME": "STARLINK-35926", "OBJECT_ID": "2025-271AB", "EPOCH": "2025-12-11T14:00:01.999872", "MEAN_MOTION": 15.54897298, "ECCENTRICITY": 0.00011705, "INCLINATION": 53.1599, "RA_OF_ASC_NODE": 192.6804, "ARG_OF_PERICENTER": 96.8845, "MEAN_ANOMALY": 55.4091, "EPHEMERIS_TYPE": 0, "CLASSIFICATION_TYPE": "U", "NORAD_CAT_ID": 66642, "ELEMENT_SET_NO": 999, "REV_AT_EPOCH": 382, "BSTAR": -0.033244773, "MEAN_MOTION_DOT": -0.02020408, "MEAN_MOTION_DDOT": 0}, "tle": {"line1": "1 66642U 25271AB  25345.58335648 -.02020408  00000+0 -33245-1 0  9997", "line2": "2 66642  53.1599 192.6804 0001170  96.8845  55.4091 15.54897298  3822"}}, "geometry": {"type": "Point", "coordinates": [-151.25205175943404, 22.204158298811667]}}, {"type": "Feature", "properties": {"norad_id": 66643, "name": "STARLINK-35918", "group": "last-30-days", "lat": 19.260058237363403, "lon": -153.8770397819263, "alt_km": 405.05187718511297, "timestamp": "2025-12-11T22:43:46.024664+00:00", "meta": {"OBJECT_NAME": "STARLINK-35918", "OBJECT_ID": "2025-271AC", "EPOCH": "2025-12-11T14:00:01.999872", "MEAN_MOTION": 15.54899151, "ECCENTRICITY": 0.00012143, "INCLINATION": 53.1601, "RA_OF_ASC_NODE": 192.6885, "ARG_OF_PERICENTER": 98.2654, "MEAN_ANOMALY": 50.1943, "EPHEMERIS_TYPE": 0, "CLASSIFICATION_TYPE": "U", "NORAD_CAT_ID": 66643, "ELEMENT_SET_NO": 999, "REV_AT_EPOCH": 405, "BSTAR": -0.033314898, "MEAN_MOTION_DOT": -0.02024369, "MEAN_MOTION_DDOT": 0}, "tle": {"line1": "1 66643U 25271AC  25345.58335648 -.02024369  00000+0 -33315-1 0  9996", "line2": "2 66643  53.1601 192.6885 0001214  98.2654  50.1943 15.54899151  4053"}}, "geometry": {"type": "Point", "coordinates": [-153.8770397819263, 19.260058237363403]}}, {"type": "Feature", "properties": {"norad_id": 66644, "name": "STARLINK-35938", "group": "last-30-days", "lat": 20.73841281289961, "lon": -152.57563476663367, "alt_km": 404.70027822823886, "timestamp": "2025-12-11T22:43:46.024674+00:00", "meta": {"OBJECT_NAME": "STARLINK-35938", "OBJECT_ID": "2025-271AD", "EPOCH": "2025-12-11T14:00:01.999872", "MEAN_MOTION": 15.54899532, "ECCENTRICITY": 0.00012384, "INCLINATION": 53.1598, "RA_OF_ASC_NODE": 192.6849, "ARG_OF_PERICENTER": 90.6673, "MEAN_ANOMALY": 59.7107, "EPHEMERIS_TYPE": 0, "CLASSIFICATION_TYPE": "U", "NORAD_CAT_ID": 66644, "ELEMENT_SET_NO": 999, "REV_AT_EPOCH": 405, "BSTAR": -0.03331954, "MEAN_MOTION_DOT": -0.02024662, "MEAN_MOTION_DDOT": 0}, "tle": {"line1": "1 66644U 25271AD  25345.58335648 -.02024662  00000+0 -33320-1 0  9999", "line2": "2 66644  53.1598 192.6849 0001238  90.6673  59.7107 15.54899532  4052"}}, "geometry": {"type": "Point", "coordinates": [-152.57563476663367, 20.73841281289961]}}, {"type": "Feature", "properties": {"norad_id": 66645, "name": "SHENZHOU-22", "group": "last-30-days", "lat": 3.873141790051101, "lon": 25.915727972547973, "alt_km": 383.6988811130932, "timestamp": "2025-12-11T22:43:46.024684+00:00", "meta": {"OBJECT_NAME": "SHENZHOU-22", "OBJECT_ID": "2025-272A", "EPOCH": "2025-12-11T11:56:35.385792", "MEAN_MOTION": 15.59100786, "ECCENTRICITY": 0.00085964, "INCLINATION": 41.4684, "RA_OF_ASC_NODE": 24.2481, "ARG_OF_PERICENTER": 20.0947, "MEAN_ANOMALY": 340.0228, "EPHEMERIS_TYPE": 0, "CLASSIFICATION_TYPE": "U", "NORAD_CAT_ID": 66645, "ELEMENT_SET_NO": 999, "REV_AT_EPOCH": 26357, "BSTAR": 0.00045432813, "MEAN_MOTION_DOT": 0.00036404, "MEAN_MOTION_DDOT": 0}, "tle": {"line1": "1 66645U 25272A   25345.49763178  .00036404  00000+0  45433-3 0  9997", "line2": "2 66645  41.4684  24.2481 0008596  20.0947 340.0228 15.59100786263571"}}, "geometry": {"type": "Point", "coordinates": [25.915727972547973, 3.873141790051101]}}, {"type": "Feature", "properties": {"norad_id": 66647, "name": "COSMOS 2597 (RODNIK-S 22)", "group": "last-30-days", "lat": 13.287249775990214, "lon": 105.15840063788683, "alt_km": 1502.715126442461, "timestamp": "2025-12-11T22:43:46.024694+00:00", "meta": {"OBJECT_NAME": "COSMOS 2597 (RODNIK-S 22)", "OBJECT_ID": "2025-273A", "EPOCH": "2025-12-11T14:06:05.355072", "MEAN_MOTION": 12.41951308, "ECCENTRICITY": 0.00079153, "INCLINATION": 82.4989, "RA_OF_ASC_NODE": 287.1644, "ARG_OF_PERICENTER": 291.9215, "MEAN_ANOMALY": 68.1023, "EPHEMERIS_TYPE": 0, "CLASSIFICATION_TYPE": "U", "NORAD_CAT_ID": 66647, "ELEMENT_SET_NO": 999, "REV_AT_EPOCH": 199, "BSTAR": 0.0001610974, "MEAN_MOTION_DOT": 3.2e-07, "MEAN_MOTION_DDOT": 0}, "tle": {"line1": "1 66647U 25273A   25345.58756198  .00000032  00000+0  16110-3 0  9992", "line2": "2 66647  82.4989 287.1644 0007915 291.9215  68.1023 12.41951308  1997"}}, "geometry": {"type": "Point", "coordinates": [105.15840063788683, 13.287249775990214]}}, {"type": "Feature", "properties": {"norad_id": 66648, "name": "COSMOS 2598 (RODNIK-S 23)", "group": "last-30-days", "lat": -17.10828402105861, "lon": 109.2662387986184, "alt_km": 1495.9611349364304, "timestamp": "2025-12-11T22:43:46.024704+00:00", "meta": {"OBJECT_NAME": "COSMOS 2598 (RODNIK-S 23)", "OBJECT_ID": "2025-273B", "EPOCH": "2025-12-11T04:17:00.448224", "MEAN_MOTION": 12.42861547, "ECCENTRICITY": 0.0007265, "INCLINATION": 82.5027, "RA_OF_ASC_NODE": 287.4211, "ARG_OF_PERICENTER": 254.923, "MEAN_ANOMALY": 105.1046, "EPHEMERIS_TYPE": 0, "CLASSIFICATION_TYPE": "U", "NORAD_CAT_ID": 66648, "ELEMENT_SET_NO": 999, "REV_AT_EPOCH": 194, "BSTAR": -3.5793e-05, "MEAN_MOTION_DOT": 5e-08, "MEAN_MOTION_DDOT": 0}, "tle": {"line1": "1 66648U 25273B   25345.17847741  .00000005  00000+0 -35793-4 0  9993", "line2": "2 66648  82.5027 287.4211 0007265 254.9230 105.1046 12.42861547  1947"}}, "geometry": {"type": "Point", "coordinates": [109.2662387986184, -17.10828402105861]}}, {"type": "Feature", "properties": {"norad_id": 66649, "name": "COSMOS 2599 (RODNIK-S 24)", "group": "last-30-days", "lat": 29.47143766946917, "lon": 102.69033995974264, "alt_km": 1503.2470796392772, "timestamp": "2025-12-11T22:43:46.024715+00:00", "meta": {"OBJECT_NAME": "COSMOS 2599 (RODNIK-S 24)", "OBJECT_ID": "2025-273C", "EPOCH": "2025-12-11T14:11:14.934048", "MEAN_MOTION": 12.41672445, "ECCENTRICITY": 0.0007901, "INCLINATION": 82.5021, "RA_OF_ASC_NODE": 287.1788, "ARG_OF_PERICENTER": 300.8111, "MEAN_ANOMALY": 59.219, "EPHEMERIS_TYPE": 0, "CLASSIFICATION_TYPE": "U", "NORAD_CAT_ID": 66649, "ELEMENT_SET_NO": 999, "REV_AT_EPOCH": 199, "BSTAR": -0.00039047133, "MEAN_MOTION_DOT": -4.3e-07, "MEAN_MOTION_DDOT": 0}, "tle": {"line1": "1 66649U 25273C   25345.59114507 -.00000043  00000+0 -39047-3 0  9995", "line2": "2 66649  82.5021 287.1788 0007901 300.8111  59.2190 12.41672445  1994"}}, "geometry": {"type": "Point", "coordinates": [102.69033995974264, 29.47143766946917]}}]}